start=new Date('2021-10-05T00:00:00.000Z').valueOf();
sats=[{"MEAN_MOTION_DDOT":"0.0000000000000","OBJECT_TYPE":"PAYLOAD","RA_OF_ASC_NODE":"235.9445","REF_FRAME":"TEME","MEAN_MOTION":"15.06389037","ARG_OF_PERICENTER":"68.8268","CLASSIFICATION_TYPE":"U","NORAD_CAT_ID":"46537","PERIOD":"95.593","TLE_LINE2":"2 46537  53.0551 235.9445 0001665  68.8268 291.2898 15.06389037 55779","GP_ID":"186226185","MEAN_MOTION_DOT":"-0.00001525","MEAN_ELEMENT_THEORY":"SGP4","REV_AT_EPOCH":"5577","ECCENTRICITY":"0.00016650","LAUNCH_DATE":"2020-10-06","PERIAPSIS":"546.094","APOAPSIS":"548.400","TIME_SYSTEM":"UTC","SEMIMAJOR_AXIS":"6925.382","RCS_SIZE":"LARGE","TLE_LINE1":"1 46537U 20070F   21277.61795934 -.00001525  00000-0 -83511-4 0  9994","OBJECT_ID":"2020-070F","INCLINATION":"53.0551","EPHEMERIS_TYPE":"0","SITE":"AFETR","ELEMENT_SET_NO":"999","CENTER_NAME":"EARTH","DECAY_DATE":null,"OBJECT_NAME":"STARLINK-1672","MEAN_ANOMALY":"291.2898","EPOCH":"2021-10-04T14:49:51.686976","COUNTRY_CODE":"US","BSTAR":"-0.00008351100000","FILE":"3144803"},{"GP_ID":"186192229","MEAN_MOTION_DOT":"0.00000952","NORAD_CAT_ID":"46538","TLE_LINE2":"2 46538  53.0535 236.0456 0001874  66.5546 293.5640 15.06382658 55763","PERIOD":"95.593","REV_AT_EPOCH":"5576","MEAN_ELEMENT_THEORY":"SGP4","OBJECT_TYPE":"PAYLOAD","MEAN_MOTION_DDOT":"0.0000000000000","MEAN_MOTION":"15.06382658","ARG_OF_PERICENTER":"66.5546","CLASSIFICATION_TYPE":"U","RA_OF_ASC_NODE":"236.0456","REF_FRAME":"TEME","SEMIMAJOR_AXIS":"6925.402","RCS_SIZE":"LARGE","LAUNCH_DATE":"2020-10-06","PERIAPSIS":"545.969","ECCENTRICITY":"0.00018740","TIME_SYSTEM":"UTC","APOAPSIS":"548.565","ELEMENT_SET_NO":"999","CENTER_NAME":"EARTH","TLE_LINE1":"1 46538U 20070G   21277.59584123  .00000952  00000-0  82830-4 0  9992","EPHEMERIS_TYPE":"0","SITE":"AFETR","OBJECT_ID":"2020-070G","INCLINATION":"53.0535","COUNTRY_CODE":"US","FILE":"3144407","BSTAR":"0.00008283000000","MEAN_ANOMALY":"293.5640","DECAY_DATE":null,"OBJECT_NAME":"STARLINK-1678","EPOCH":"2021-10-04T14:18:00.682272"},{"TLE_LINE1":"1 46539U 20070H   21277.58846777 -.00001754  00000-0 -98950-4 0  9991","EPHEMERIS_TYPE":"0","SITE":"AFETR","INCLINATION":"53.0536","OBJECT_ID":"2020-070H","ELEMENT_SET_NO":"999","CENTER_NAME":"EARTH","MEAN_ANOMALY":"155.4424","OBJECT_NAME":"STARLINK-1684","DECAY_DATE":null,"EPOCH":"2021-10-04T14:07:23.615328","COUNTRY_CODE":"US","FILE":"3144682","BSTAR":"-0.00009895000000","OBJECT_TYPE":"PAYLOAD","MEAN_MOTION_DDOT":"0.0000000000000","CLASSIFICATION_TYPE":"U","ARG_OF_PERICENTER":"204.6522","MEAN_MOTION":"15.06389492","REF_FRAME":"TEME","RA_OF_ASC_NODE":"236.0745","MEAN_MOTION_DOT":"-0.00001754","GP_ID":"186201373","TLE_LINE2":"2 46539  53.0536 236.0745 0000909 204.6522 155.4424 15.06389492 55481","PERIOD":"95.593","NORAD_CAT_ID":"46539","REV_AT_EPOCH":"5548","MEAN_ELEMENT_THEORY":"SGP4","LAUNCH_DATE":"2020-10-06","ECCENTRICITY":"0.00009090","PERIAPSIS":"546.616","TIME_SYSTEM":"UTC","APOAPSIS":"547.875","SEMIMAJOR_AXIS":"6925.381","RCS_SIZE":"LARGE"},{"TLE_LINE1":"1 46541U 20070K   21277.24382486  .00000634  00000-0  61462-4 0  9991","OBJECT_ID":"2020-070K","INCLINATION":"53.0543","EPHEMERIS_TYPE":"0","SITE":"AFETR","ELEMENT_SET_NO":"999","CENTER_NAME":"EARTH","DECAY_DATE":null,"OBJECT_NAME":"STARLINK-1687","MEAN_ANOMALY":"282.3493","EPOCH":"2021-10-04T05:51:06.467904","COUNTRY_CODE":"US","BSTAR":"0.00006146200000","FILE":"3144407","MEAN_MOTION_DDOT":"0.0000000000000","OBJECT_TYPE":"PAYLOAD","RA_OF_ASC_NODE":"217.6112","REF_FRAME":"TEME","MEAN_MOTION":"15.06394787","ARG_OF_PERICENTER":"77.7658","CLASSIFICATION_TYPE":"U","NORAD_CAT_ID":"46541","TLE_LINE2":"2 46541  53.0543 217.6112 0001450  77.7658 282.3493 15.06394787 55991","PERIOD":"95.592","GP_ID":"186193731","MEAN_MOTION_DOT":"0.00000634","REV_AT_EPOCH":"5599","MEAN_ELEMENT_THEORY":"SGP4","ECCENTRICITY":"0.00014500","LAUNCH_DATE":"2020-10-06","PERIAPSIS":"546.225","APOAPSIS":"548.234","TIME_SYSTEM":"UTC","SEMIMAJOR_AXIS":"6925.365","RCS_SIZE":"LARGE"},{"CENTER_NAME":"EARTH","ELEMENT_SET_NO":"999","EPHEMERIS_TYPE":"0","SITE":"AFETR","OBJECT_ID":"2020-070L","INCLINATION":"53.0537","TLE_LINE1":"1 46542U 20070L   21277.57740169  .00000297  00000-0  38832-4 0  9994","FILE":"3144407","BSTAR":"0.00003883200000","COUNTRY_CODE":"US","EPOCH":"2021-10-04T13:51:27.506016","MEAN_ANOMALY":"300.6698","DECAY_DATE":null,"OBJECT_NAME":"STARLINK-1692","REV_AT_EPOCH":"5576","MEAN_ELEMENT_THEORY":"SGP4","GP_ID":"186192479","MEAN_MOTION_DOT":"0.00000297","NORAD_CAT_ID":"46542","TLE_LINE2":"2 46542  53.0537 236.1275 0001465  59.4435 300.6698 15.06395726 55767","PERIOD":"95.592","ARG_OF_PERICENTER":"59.4435","MEAN_MOTION":"15.06395726","CLASSIFICATION_TYPE":"U","RA_OF_ASC_NODE":"236.1275","REF_FRAME":"TEME","OBJECT_TYPE":"PAYLOAD","MEAN_MOTION_DDOT":"0.0000000000000","RCS_SIZE":"LARGE","SEMIMAJOR_AXIS":"6925.362","TIME_SYSTEM":"UTC","APOAPSIS":"548.241","LAUNCH_DATE":"2020-10-06","ECCENTRICITY":"0.00014650","PERIAPSIS":"546.212"},{"ECCENTRICITY":"0.00013580","LAUNCH_DATE":"2020-10-06","PERIAPSIS":"546.297","APOAPSIS":"548.178","TIME_SYSTEM":"UTC","SEMIMAJOR_AXIS":"6925.373","RCS_SIZE":"LARGE","MEAN_MOTION_DDOT":"0.0000000000000","OBJECT_TYPE":"PAYLOAD","RA_OF_ASC_NODE":"237.0756","REF_FRAME":"TEME","MEAN_MOTION":"15.06392084","ARG_OF_PERICENTER":"84.2088","CLASSIFICATION_TYPE":"U","NORAD_CAT_ID":"46543","TLE_LINE2":"2 46543  53.0536 237.0756 0001358  84.2088 275.9056 15.06392084 55735","PERIOD":"95.593","GP_ID":"186192729","MEAN_MOTION_DOT":"-0.00001161","REV_AT_EPOCH":"5573","MEAN_ELEMENT_THEORY":"SGP4","DECAY_DATE":null,"OBJECT_NAME":"STARLINK-1693","MEAN_ANOMALY":"275.9056","EPOCH":"2021-10-04T08:43:37.209504","COUNTRY_CODE":"US","BSTAR":"-0.00005910600000","FILE":"3144407","TLE_LINE1":"1 46543U 20070M   21277.36362511 -.00001161  00000-0 -59106-4 0  9993","OBJECT_ID":"2020-070M","INCLINATION":"53.0536","SITE":"AFETR","EPHEMERIS_TYPE":"0","ELEMENT_SET_NO":"999","CENTER_NAME":"EARTH"},{"TIME_SYSTEM":"UTC","APOAPSIS":"548.241","ECCENTRICITY":"0.00014650","LAUNCH_DATE":"2020-10-06","PERIAPSIS":"546.212","RCS_SIZE":"LARGE","SEMIMAJOR_AXIS":"6925.361","MEAN_MOTION":"15.06395890","ARG_OF_PERICENTER":"76.1748","CLASSIFICATION_TYPE":"U","RA_OF_ASC_NODE":"221.1997","REF_FRAME":"TEME","OBJECT_TYPE":"PAYLOAD","MEAN_MOTION_DDOT":"0.0000000000000","MEAN_ELEMENT_THEORY":"SGP4","REV_AT_EPOCH":"5597","GP_ID":"186193481","MEAN_MOTION_DOT":"0.00001113","NORAD_CAT_ID":"46544","TLE_LINE2":"2 46544  53.0549 221.1997 0001465  76.1748 283.9404 15.06395890 55973","PERIOD":"95.592","EPOCH":"2021-10-04T13:24:16.318080","MEAN_ANOMALY":"283.9404","DECAY_DATE":null,"OBJECT_NAME":"STARLINK-1694","FILE":"3144407","BSTAR":"0.00009359800000","COUNTRY_CODE":"US","EPHEMERIS_TYPE":"0","SITE":"AFETR","OBJECT_ID":"2020-070N","INCLINATION":"53.0549","TLE_LINE1":"1 46544U 20070N   21277.55852220  .00001113  00000-0  93598-4 0  9994","CENTER_NAME":"EARTH","ELEMENT_SET_NO":"999"},{"OBJECT_ID":"2020-070P","INCLINATION":"53.0551","EPHEMERIS_TYPE":"0","SITE":"AFETR","TLE_LINE1":"1 46545U 20070P   21277.59951488 -.00000024  00000-0  17289-4 0  9999","CENTER_NAME":"EARTH","ELEMENT_SET_NO":"999","EPOCH":"2021-10-04T14:23:18.085632","OBJECT_NAME":"STARLINK-1696","DECAY_DATE":null,"MEAN_ANOMALY":"295.1038","BSTAR":"0.00001728900000","FILE":"3144803","COUNTRY_CODE":"US","RA_OF_ASC_NODE":"236.0266","REF_FRAME":"TEME","ARG_OF_PERICENTER":"65.0113","MEAN_MOTION":"15.06402343","CLASSIFICATION_TYPE":"U","MEAN_MOTION_DDOT":"0.0000000000000","OBJECT_TYPE":"PAYLOAD","REV_AT_EPOCH":"5576","MEAN_ELEMENT_THEORY":"SGP4","NORAD_CAT_ID":"46545","TLE_LINE2":"2 46545  53.0551 236.0266 0001560  65.0113 295.1038 15.06402343 55767","PERIOD":"95.592","GP_ID":"186226438","MEAN_MOTION_DOT":"-0.00000024","APOAPSIS":"548.287","TIME_SYSTEM":"UTC","ECCENTRICITY":"0.00015600","LAUNCH_DATE":"2020-10-06","PERIAPSIS":"546.126","RCS_SIZE":"LARGE","SEMIMAJOR_AXIS":"6925.341"},{"REV_AT_EPOCH":"5576","MEAN_ELEMENT_THEORY":"SGP4","MEAN_MOTION_DOT":"-0.00001749","GP_ID":"186191980","TLE_LINE2":"2 46546  53.0540 236.0838 0001529  63.9865 296.1281 15.06391269 55762","PERIOD":"95.593","NORAD_CAT_ID":"46546","CLASSIFICATION_TYPE":"U","ARG_OF_PERICENTER":"63.9865","MEAN_MOTION":"15.06391269","REF_FRAME":"TEME","RA_OF_ASC_NODE":"236.0838","OBJECT_TYPE":"PAYLOAD","MEAN_MOTION_DDOT":"0.0000000000000","RCS_SIZE":"LARGE","SEMIMAJOR_AXIS":"6925.375","TIME_SYSTEM":"UTC","APOAPSIS":"548.299","LAUNCH_DATE":"2020-10-06","PERIAPSIS":"546.181","ECCENTRICITY":"0.00015290","CENTER_NAME":"EARTH","ELEMENT_SET_NO":"999","SITE":"AFETR","EPHEMERIS_TYPE":"0","INCLINATION":"53.0540","OBJECT_ID":"2020-070Q","TLE_LINE1":"1 46546U 20070Q   21277.58478455 -.00001749  00000-0 -98558-4 0  9991","FILE":"3144407","BSTAR":"-0.00009855800000","COUNTRY_CODE":"US","EPOCH":"2021-10-04T14:02:05.385120","MEAN_ANOMALY":"296.1281","DECAY_DATE":null,"OBJECT_NAME":"STARLINK-1697"},{"TLE_LINE1":"1 46547U 20070R   21277.87966319  .00000497  00000-0  52232-4 0  9991","EPHEMERIS_TYPE":"0","SITE":"AFETR","INCLINATION":"53.0535","OBJECT_ID":"2020-070R","ELEMENT_SET_NO":"999","CENTER_NAME":"EARTH","MEAN_ANOMALY":"287.1090","DECAY_DATE":null,"OBJECT_NAME":"STARLINK-1698","EPOCH":"2021-10-04T21:06:42.899616","COUNTRY_CODE":"US","FILE":"3144803","BSTAR":"0.00005223200000","OBJECT_TYPE":"PAYLOAD","MEAN_MOTION_DDOT":"0.0000000000000","CLASSIFICATION_TYPE":"U","MEAN_MOTION":"15.06399440","ARG_OF_PERICENTER":"73.0064","REF_FRAME":"TEME","RA_OF_ASC_NODE":"234.7668","MEAN_MOTION_DOT":"0.00000497","GP_ID":"186224937","PERIOD":"95.592","TLE_LINE2":"2 46547  53.0535 234.7668 0001509  73.0064 287.1090 15.06399440 55817","NORAD_CAT_ID":"46547","MEAN_ELEMENT_THEORY":"SGP4","REV_AT_EPOCH":"5581","ECCENTRICITY":"0.00015090","LAUNCH_DATE":"2020-10-06","PERIAPSIS":"546.170","TIME_SYSTEM":"UTC","APOAPSIS":"548.260","SEMIMAJOR_AXIS":"6925.350","RCS_SIZE":"LARGE"}];
